[{"OBJECT_NAME":"STARLINK-5792","OBJECT_ID":"2023-042BB","EPOCH":"2026-03-09T07:07:46.370208","MEAN_MOTION":15.02531824,"ECCENTRICITY":0.00012489,"INCLINATION":43.0038,"RA_OF_ASC_NODE":45.0244,"ARG_OF_PERICENTER":269.4488,"MEAN_ANOMALY":90.6211,"EPHEMERIS_TYPE":0,"CLASSIFICATION_TYPE":"U","NORAD_CAT_ID":56035,"ELEMENT_SET_NO":999,"REV_AT_EPOCH":16300,"BSTAR":2.6108613e-5,"MEAN_MOTION_DOT":1.49e-6,"MEAN_MOTION_DDOT":0},{"OBJECT_NAME":"COSMOS 886 DEB","OBJECT_ID":"1976-126AR","EPOCH":"2026-03-09T21:36:12.993696","MEAN_MOTION":13.31800165,"ECCENTRICITY":0.07768266,"INCLINATION":65.8223,"RA_OF_ASC_NODE":335.2921,"ARG_OF_PERICENTER":140.8231,"MEAN_ANOMALY":225.1777,"EPHEMERIS_TYPE":0,"CLASSIFICATION_TYPE":"U","NORAD_CAT_ID":9951,"ELEMENT_SET_NO":999,"REV_AT_EPOCH":4670,"BSTAR":0.00068514651,"MEAN_MOTION_DOT":1.806e-5,"MEAN_MOTION_DDOT":0}]
